STARLINK-32385          
1 61068U 24164U   25322.11425808 -.00001625  00000+0 -42781-4 0  9992
2 61068  53.1615 249.4641 0001464  76.5052 283.6112 15.30183493 66398
STARLINK-32380          
1 61069U 24164V   25322.11110635 -.00000072  00000+0  97021-5 0  9994
2 61069  53.1614 249.4463 0001556  74.5540 285.5633 15.30167174 66399
STARLINK-32375          
1 61070U 24164W   25322.12059058 -.00001779  00000+0 -47980-4 0  9992
2 61070  53.1605 249.4992 0001078  91.5949 268.5175 15.30182274 66399
STARLINK-11209 [DTC]    
1 61200U 24171A   25321.55204440  .00000600  00000+0  98093-5 0  9990
2 61200  53.1580   9.2609 0001063  95.2011 264.9128 15.69710739 67695
STARLINK-11257 [DTC]    
1 61201U 24171B   25321.86549007 -.00002314  00000+0 -14247-4 0  9990
2 61201  53.1584   7.6510 0000957  86.0821 274.0306 15.69707838 66832
STARLINK-11309 [DTC]    
1 61202U 24171C   25321.86058742 -.00001714  00000+0 -92909-5 0  9997
2 61202  53.1584   7.6229 0001235  59.3092 300.8047 15.69704348 66836
STARLINK-11292 [DTC]    
1 61203U 24171D   25321.85568252 -.00001309  00000+0 -59545-5 0  9998
2 61203  53.1588   7.5846 0001024  92.3262 267.7873 15.69698937 66831
STARLINK-11302 [DTC]    
1 61204U 24171E   25321.85077682 -.00001438  00000+0 -70104-5 0  9998
2 61204  53.1586   7.5520 0001254  80.4023 279.7137 15.69700413 66836
STARLINK-11277 [DTC]    
1 61205U 24171F   25321.84096895 -.00000966  00000+0 -31147-5 0  9994
2 61205  53.1581   7.4860 0001348  68.7805 291.3356 15.69699055 66831
STARLINK-11279 [DTC]    
1 61206U 24171G   25321.83607135 -.00004659  00000+0 -33666-4 0  9999
2 61206  53.1598   7.4555 0000666 143.0595 217.0469 15.69680361 66836
STARLINK-11091 [DTC]    
1 61207U 24171H   25321.84587376 -.00001953  00000+0 -11264-4 0  9999
2 61207  53.1591   7.5201 0001361  99.0600 261.0572 15.69699299 66833
STARLINK-11291 [DTC]    
1 61208U 24171J   25321.83115617 -.00002276  00000+0 -13923-4 0  9997
2 61208  53.1599   7.4190 0001967  61.4252 298.6963 15.69703819 66830
STARLINK-11304 [DTC]    
1 61209U 24171K   25321.44423130  .00001378  00000+0  16246-4 0  9998
2 61209  53.1599   9.2719 0001363  69.0982 291.0181 15.69693381 67687
STARLINK-11307 [DTC]    
1 61210U 24171L   25321.37575338 -.00001359  00000+0 -63599-5 0  9995
2 61210  53.1595  10.2867 0001190  99.2457 260.8695 15.69712257 66756
STARLINK-11298 [DTC]    
1 61211U 24171M   25321.49818687 -.00002754  00000+0 -17874-4 0  9990
2 61211  53.1590   9.6258 0001294  65.0121 295.1031 15.69716836 66776
STARLINK-11310 [DTC]    
1 61212U 24171N   25321.42961038 -.00002802  00000+0 -18264-4 0  9991
2 61212  53.1586   9.9091 0001328  98.2648 261.8520 15.69719476 66765
