[{"OBJECT_NAME":"STARLINK-32385","OBJECT_ID":"2024-164U","EPOCH":"2025-11-18T02:44:31.898112","MEAN_MOTION":15.30183493,"ECCENTRICITY":0.0001464,"INCLINATION":53.1615,"RA_OF_ASC_NODE":249.4641,"ARG_OF_PERICENTER":76.5052,"MEAN_ANOMALY":283.6112,"EPHEMERIS_TYPE":0,"CLASSIFICATION_TYPE":"U","NORAD_CAT_ID":61068,"ELEMENT_SET_NO":999,"REV_AT_EPOCH":6639,"BSTAR":-4.2781e-5,"MEAN_MOTION_DOT":-1.625e-5,"MEAN_MOTION_DDOT":0},{"OBJECT_NAME":"STARLINK-32380","OBJECT_ID":"2024-164V","EPOCH":"2025-11-18T02:39:59.588640","MEAN_MOTION":15.30167174,"ECCENTRICITY":0.0001556,"INCLINATION":53.1614,"RA_OF_ASC_NODE":249.4463,"ARG_OF_PERICENTER":74.554,"MEAN_ANOMALY":285.5633,"EPHEMERIS_TYPE":0,"CLASSIFICATION_TYPE":"U","NORAD_CAT_ID":61069,"ELEMENT_SET_NO":999,"REV_AT_EPOCH":6639,"BSTAR":9.7021e-6,"MEAN_MOTION_DOT":-7.2e-7,"MEAN_MOTION_DDOT":0},{"OBJECT_NAME":"STARLINK-32375","OBJECT_ID":"2024-164W","EPOCH":"2025-11-18T02:53:39.026112","MEAN_MOTION":15.30182274,"ECCENTRICITY":0.0001078,"INCLINATION":53.1605,"RA_OF_ASC_NODE":249.4992,"ARG_OF_PERICENTER":91.5949,"MEAN_ANOMALY":268.5175,"EPHEMERIS_TYPE":0,"CLASSIFICATION_TYPE":"U","NORAD_CAT_ID":61070,"ELEMENT_SET_NO":999,"REV_AT_EPOCH":6639,"BSTAR":-4.798e-5,"MEAN_MOTION_DOT":-1.779e-5,"MEAN_MOTION_DDOT":0},{"OBJECT_NAME":"STARLINK-11209 [DTC]","OBJECT_ID":"2024-171A","EPOCH":"2025-11-17T13:14:56.636160","MEAN_MOTION":15.69710739,"ECCENTRICITY":0.00010633,"INCLINATION":53.158,"RA_OF_ASC_NODE":9.2609,"ARG_OF_PERICENTER":95.2011,"MEAN_ANOMALY":264.9128,"EPHEMERIS_TYPE":0,"CLASSIFICATION_TYPE":"U","NORAD_CAT_ID":61200,"ELEMENT_SET_NO":999,"REV_AT_EPOCH":6769,"BSTAR":9.80927e-6,"MEAN_MOTION_DOT":6.0e-6,"MEAN_MOTION_DDOT":0},{"OBJECT_NAME":"STARLINK-11257 [DTC]","OBJECT_ID":"2024-171B","EPOCH":"2025-11-17T20:46:18.342048","MEAN_MOTION":15.69707838,"ECCENTRICITY":9.57e-5,"INCLINATION":53.1584,"RA_OF_ASC_NODE":7.651,"ARG_OF_PERICENTER":86.0821,"MEAN_ANOMALY":274.0306,"EPHEMERIS_TYPE":0,"CLASSIFICATION_TYPE":"U","NORAD_CAT_ID":61201,"ELEMENT_SET_NO":999,"REV_AT_EPOCH":6683,"BSTAR":-1.4247e-5,"MEAN_MOTION_DOT":-2.314e-5,"MEAN_MOTION_DDOT":0},{"OBJECT_NAME":"STARLINK-11309 [DTC]","OBJECT_ID":"2024-171C","EPOCH":"2025-11-17T20:39:14.753088","MEAN_MOTION":15.69704348,"ECCENTRICITY":0.0001235,"INCLINATION":53.1584,"RA_OF_ASC_NODE":7.6229,"ARG_OF_PERICENTER":59.3092,"MEAN_ANOMALY":300.8047,"EPHEMERIS_TYPE":0,"CLASSIFICATION_TYPE":"U","NORAD_CAT_ID":61202,"ELEMENT_SET_NO":999,"REV_AT_EPOCH":6683,"BSTAR":-9.2909e-6,"MEAN_MOTION_DOT":-1.714e-5,"MEAN_MOTION_DDOT":0},{"OBJECT_NAME":"STARLINK-11292 [DTC]","OBJECT_ID":"2024-171D","EPOCH":"2025-11-17T20:32:10.969728","MEAN_MOTION":15.69698937,"ECCENTRICITY":0.0001024,"INCLINATION":53.1588,"RA_OF_ASC_NODE":7.5846,"ARG_OF_PERICENTER":92.3262,"MEAN_ANOMALY":267.7873,"EPHEMERIS_TYPE":0,"CLASSIFICATION_TYPE":"U","NORAD_CAT_ID":61203,"ELEMENT_SET_NO":999,"REV_AT_EPOCH":6683,"BSTAR":-5.9545e-6,"MEAN_MOTION_DOT":-1.309e-5,"MEAN_MOTION_DDOT":0},{"OBJECT_NAME":"STARLINK-11302 [DTC]","OBJECT_ID":"2024-171E","EPOCH":"2025-11-17T20:25:07.117248","MEAN_MOTION":15.69700413,"ECCENTRICITY":0.0001254,"INCLINATION":53.1586,"RA_OF_ASC_NODE":7.552,"ARG_OF_PERICENTER":80.4023,"MEAN_ANOMALY":279.7137,"EPHEMERIS_TYPE":0,"CLASSIFICATION_TYPE":"U","NORAD_CAT_ID":61204,"ELEMENT_SET_NO":999,"REV_AT_EPOCH":6683,"BSTAR":-7.0104e-6,"MEAN_MOTION_DOT":-1.438e-5,"MEAN_MOTION_DDOT":0},{"OBJECT_NAME":"STARLINK-11277 [DTC]","OBJECT_ID":"2024-171F","EPOCH":"2025-11-17T20:10:59.717280","MEAN_MOTION":15.69699055,"ECCENTRICITY":0.0001348,"INCLINATION":53.1581,"RA_OF_ASC_NODE":7.486,"ARG_OF_PERICENTER":68.7805,"MEAN_ANOMALY":291.3356,"EPHEMERIS_TYPE":0,"CLASSIFICATION_TYPE":"U","NORAD_CAT_ID":61205,"ELEMENT_SET_NO":999,"REV_AT_EPOCH":6683,"BSTAR":-3.1147e-6,"MEAN_MOTION_DOT":-9.66e-6,"MEAN_MOTION_DDOT":0},{"OBJECT_NAME":"STARLINK-11279 [DTC]","OBJECT_ID":"2024-171G","EPOCH":"2025-11-17T20:03:56.564640","MEAN_MOTION":15.69680361,"ECCENTRICITY":6.66e-5,"INCLINATION":53.1598,"RA_OF_ASC_NODE":7.4555,"ARG_OF_PERICENTER":143.0595,"MEAN_ANOMALY":217.0469,"EPHEMERIS_TYPE":0,"CLASSIFICATION_TYPE":"U","NORAD_CAT_ID":61206,"ELEMENT_SET_NO":999,"REV_AT_EPOCH":6683,"BSTAR":-3.3666e-5,"MEAN_MOTION_DOT":-4.659e-5,"MEAN_MOTION_DDOT":0},{"OBJECT_NAME":"STARLINK-11091 [DTC]","OBJECT_ID":"2024-171H","EPOCH":"2025-11-17T20:18:03.492864","MEAN_MOTION":15.69699299,"ECCENTRICITY":0.0001361,"INCLINATION":53.1591,"RA_OF_ASC_NODE":7.5201,"ARG_OF_PERICENTER":99.06,"MEAN_ANOMALY":261.0572,"EPHEMERIS_TYPE":0,"CLASSIFICATION_TYPE":"U","NORAD_CAT_ID":61207,"ELEMENT_SET_NO":999,"REV_AT_EPOCH":6683,"BSTAR":-1.1264e-5,"MEAN_MOTION_DOT":-1.953e-5,"MEAN_MOTION_DDOT":0},{"OBJECT_NAME":"STARLINK-11291 [DTC]","OBJECT_ID":"2024-171J","EPOCH":"2025-11-17T19:56:51.893088","MEAN_MOTION":15.69703819,"ECCENTRICITY":0.0001967,"INCLINATION":53.1599,"RA_OF_ASC_NODE":7.419,"ARG_OF_PERICENTER":61.4252,"MEAN_ANOMALY":298.6963,"EPHEMERIS_TYPE":0,"CLASSIFICATION_TYPE":"U","NORAD_CAT_ID":61208,"ELEMENT_SET_NO":999,"REV_AT_EPOCH":6683,"BSTAR":-1.3923e-5,"MEAN_MOTION_DOT":-2.276e-5,"MEAN_MOTION_DDOT":0},{"OBJECT_NAME":"STARLINK-11304 [DTC]","OBJECT_ID":"2024-171K","EPOCH":"2025-11-17T10:39:41.584320","MEAN_MOTION":15.69693381,"ECCENTRICITY":0.00013635,"INCLINATION":53.1599,"RA_OF_ASC_NODE":9.2719,"ARG_OF_PERICENTER":69.0982,"MEAN_ANOMALY":291.0181,"EPHEMERIS_TYPE":0,"CLASSIFICATION_TYPE":"U","NORAD_CAT_ID":61209,"ELEMENT_SET_NO":999,"REV_AT_EPOCH":6768,"BSTAR":1.6245816e-5,"MEAN_MOTION_DOT":1.378e-5,"MEAN_MOTION_DDOT":0},{"OBJECT_NAME":"STARLINK-11307 [DTC]","OBJECT_ID":"2024-171L","EPOCH":"2025-11-17T09:01:05.092032","MEAN_MOTION":15.69712257,"ECCENTRICITY":0.000119,"INCLINATION":53.1595,"RA_OF_ASC_NODE":10.2867,"ARG_OF_PERICENTER":99.2457,"MEAN_ANOMALY":260.8695,"EPHEMERIS_TYPE":0,"CLASSIFICATION_TYPE":"U","NORAD_CAT_ID":61210,"ELEMENT_SET_NO":999,"REV_AT_EPOCH":6675,"BSTAR":-6.359907e-6,"MEAN_MOTION_DOT":-1.359e-5,"MEAN_MOTION_DDOT":0},{"OBJECT_NAME":"STARLINK-11298 [DTC]","OBJECT_ID":"2024-171M","EPOCH":"2025-11-17T11:57:23.345568","MEAN_MOTION":15.69716836,"ECCENTRICITY":0.00012947,"INCLINATION":53.159,"RA_OF_ASC_NODE":9.6258,"ARG_OF_PERICENTER":65.0121,"MEAN_ANOMALY":295.1031,"EPHEMERIS_TYPE":0,"CLASSIFICATION_TYPE":"U","NORAD_CAT_ID":61211,"ELEMENT_SET_NO":999,"REV_AT_EPOCH":6677,"BSTAR":-1.7874454e-5,"MEAN_MOTION_DOT":-2.754e-5,"MEAN_MOTION_DDOT":0},{"OBJECT_NAME":"STARLINK-11310 [DTC]","OBJECT_ID":"2024-171N","EPOCH":"2025-11-17T10:18:38.336832","MEAN_MOTION":15.69719476,"ECCENTRICITY":0.00013288,"INCLINATION":53.1586,"RA_OF_ASC_NODE":9.9091,"ARG_OF_PERICENTER":98.2648,"MEAN_ANOMALY":261.852,"EPHEMERIS_TYPE":0,"CLASSIFICATION_TYPE":"U","NORAD_CAT_ID":61212,"ELEMENT_SET_NO":999,"REV_AT_EPOCH":6676,"BSTAR":-1.8263922e-5,"MEAN_MOTION_DOT":-2.802e-5,"MEAN_MOTION_DDOT":0}]
